0 COSMOS 2199
1 22036U 92042C   13282.16191985  .00000023  00000-0  71864-4 0  7911
2 22036 082.6009 341.9144 0010561 016.2091 011.0999 12.60933355977603
0 COSMOS 2199
1 22036U 92042C   13284.48549293  .00000036  00000-0  14328-3 0  7923
2 22036 082.6015 340.4404 0010565 010.8700 118.7218 12.60933313977898
0 COSMOS 2199
1 22036U 92042C   13286.77323410  .00000054  00000-0  24626-3 0  7931
2 22036 082.6009 338.9888 0010466 005.7072 063.5935 12.60933367978189
0 COSMOS 2199
1 22036U 92042C   13289.14993705  .00000032  00000-0  12229-3 0  7948
2 22036 082.6002 337.4806 0010374 000.1411 052.4960 12.60933593978489
0 COSMOS 2199
1 22036U 92042C   13291.38842848  .00000017  00000-0  35910-4 0  7955
2 22036 082.5999 336.0598 0010282 354.9638 133.9330 12.60933871978761
0 COSMOS 2199
1 22036U 92042C   13293.61886690  .00000003  00000-0 -45007-4 0  7961
2 22036 082.5997 334.6440 0010210 349.6154 179.0046 12.60933911979046
0 COSMOS 2199
1 22036U 92042C   13295.81477124  .00000022  00000-0  67021-4 0  7974
2 22036 082.5996 333.2501 0010129 344.4537 067.2070 12.60933848979320
